OBJECT_NAME,OBJECT_ID,EPOCH,MEAN_MOTION,ECCENTRICITY,INCLINATION,RA_OF_ASC_NODE,ARG_OF_PERICENTER,MEAN_ANOMALY,EPHEMERIS_TYPE,CLASSIFICATION_TYPE,NORAD_CAT_ID,ELEMENT_SET_NO,REV_AT_EPOCH,BSTAR,MEAN_MOTION_DOT,MEAN_MOTION_DDOT
ONEWEB-0551,2023-043H,2026-07-08T03:31:45.545952,13.15546960,.00023306,87.8985,255.0506,104.8330,255.3058,0,U,56053,999,15915,-.16946251E-3,-.51E-6,0
ONEWEB-0552,2023-043J,2026-07-08T10:02:57.505632,13.21825929,.00020265,87.9233,239.7583,103.4387,256.6973,0,U,56054,999,16103,.7932871E-5,.16E-6,0
ONEWEB-0553,2023-043K,2026-07-08T12:53:23.430336,13.16593640,.00021264,87.9078,224.5339,84.7292,275.4082,0,U,56055,999,16178,-.31491658E-4,.1E-7,0
ONEWEB-0554,2023-043L,2026-07-08T08:56:17.083680,13.16593978,.00016009,87.9075,224.5751,88.7486,271.3829,0,U,56056,999,16174,.71184571E-4,.4E-6,0
ONEWEB-0555,2023-043M,2026-07-08T08:01:33.386880,13.16593265,.00022565,87.9083,224.5716,81.0912,279.0475,0,U,56057,999,16174,-.15006578E-3,-.45E-6,0
ONEWEB-0557,2023-043N,2026-07-08T08:22:04.542816,13.16593786,.00017054,87.9081,224.5787,56.3413,303.7881,0,U,56058,999,16174,-.16149655E-3,-.49E-6,0
ONEWEB-0558,2023-043P,2026-07-08T02:37:15.923712,13.21825522,.00024228,87.9238,239.8152,99.0933,261.0475,0,U,56059,999,16100,.23305667E-4,.23E-6,0
ONEWEB-0559,2023-043Q,2026-07-08T09:36:18.452448,13.21824687,.00022175,87.9241,239.7527,102.7009,257.4373,0,U,56060,999,16105,-.33531295E-3,-.125E-5,0
ONEWEB-0566,2023-043R,2026-07-08T09:26:37.211136,13.21823964,.00022441,87.9238,239.7520,104.7462,255.3920,0,U,56061,999,16103,.8581314E-4,.48E-6,0
ONEWEB-0568,2023-043S,2026-07-08T12:26:02.474880,13.16594680,.0002215,87.9081,224.5344,87.6174,272.5211,0,U,56062,999,16178,-.42236562E-3,-.149E-5,0
ONEWEB-0574,2023-043T,2026-07-08T09:16:57.768672,13.21826221,.00019424,87.9241,239.7580,92.3896,267.7461,0,U,56063,999,16107,.30804766E-3,.14E-5,0
ONEWEB-0575,2023-043U,2026-07-08T14:06:20.778336,13.16595490,.00018673,87.9082,224.5166,83.7741,276.3603,0,U,56064,999,16178,-.33742305E-3,-.116E-5,0
ONEWEB-0576,2023-043V,2026-07-08T08:10:40.313568,13.16595708,.00020004,87.9083,224.5744,89.0008,271.1352,0,U,56065,999,16174,-.27381026E-4,.2E-7,0
ONEWEB-0577,2023-043W,2026-07-08T08:19:48.239040,13.16596694,.00016398,87.9095,224.5687,79.9377,280.1939,0,U,56066,999,16177,.27761784E-3,.119E-5,0
ONEWEB-0578,2023-043X,2026-07-08T08:57:35.115840,13.21826248,.00022348,87.9243,239.7572,88.8597,271.2793,0,U,56067,999,16103,.17822102E-3,.87E-6,0
ONEWEB-0579,2023-043Y,2026-07-08T14:12:27.399456,13.21827434,.00019948,87.9244,239.7115,103.9174,256.2181,0,U,56068,999,16107,-.23266977E-3,-.83E-6,0
ONEWEB-0581,2023-043Z,2026-07-08T13:57:13.606272,13.16595173,.00015615,87.9080,224.5348,85.7664,274.3645,0,U,56069,999,16177,-.58829312E-4,-.1E-6,0
ONEWEB-0609,2023-043AA,2026-07-08T11:27:29.716128,13.15547461,.000215,87.8988,254.9695,97.6870,262.4505,0,U,56070,999,15923,.41645161E-3,.17E-5,0
ONEWEB-0613,2023-043AB,2026-07-08T11:24:04.818528,13.15548533,.00021484,87.8988,254.9822,104.4079,255.7290,0,U,56071,999,15923,.48209292E-3,.194E-5,0
ONEWEB-0630,2023-043AC,2026-07-08T03:59:08.957760,13.15549412,.00021306,87.8988,255.0176,108.0198,252.1165,0,U,56072,999,15918,.45200493E-3,.183E-5,0
ONEWEB-0632,2023-043AD,2026-07-08T11:10:23.881152,13.15547874,.00019128,87.8989,254.9742,97.4426,262.6922,0,U,56073,999,15922,.12852806E-3,.61E-6,0
ONEWEB-0633,2023-043AE,2026-07-08T11:01:16.278816,13.15548942,.00022954,87.8998,254.9525,107.8009,252.3372,0,U,56074,999,15920,-.1997953E-3,-.62E-6,0
ONEWEB-0634,2023-043AF,2026-07-08T03:22:38.625312,13.15547692,.00023289,87.8987,255.0548,94.2320,265.9077,0,U,56075,999,15915,-.29483815E-3,-.98E-6,0
ONEWEB-0635,2023-043AG,2026-07-08T14:12:55.795680,13.15548039,.00018032,87.8999,254.9295,94.9283,265.2053,0,U,56076,999,15924,-.46870775E-3,-.164E-5,0
ONEWEB-0636,2023-043AH,2026-07-08T14:01:30.686880,13.15547676,.00018938,87.9000,254.9366,95.1146,265.0201,0,U,56077,999,15922,-.24881827E-3,-.81E-6,0
ONEWEB-0637,2023-043AJ,2026-07-08T10:13:20.874720,13.15548726,.00020578,87.8989,254.9831,89.7860,270.3506,0,U,56078,999,15922,-.11579993E-3,-.31E-6,0
ONEWEB-0647,2023-043AK,2026-07-08T10:06:30.367584,13.15549506,.00019368,87.8992,254.9963,102.5666,257.5681,0,U,56079,999,15921,.51801283E-4,.32E-6,0
ONEWEB-0651,2023-043AL,2026-07-08T13:38:42.554112,13.15547936,.00018962,87.8990,254.9607,92.7170,267.4177,0,U,56080,999,16043,.36644575E-3,.151E-5,0
ONEWEB-0718,2023-043AM,2026-07-08T09:52:49.082880,13.15549969,.00025902,87.8991,254.9724,96.6380,263.5045,0,U,56081,999,15922,.63514575E-3,.252E-5,0
STARLINK-6109,2023-046B,2026-07-08T07:51:27.857664,15.27570457,.0000954,42.9991,200.0792,271.3859,88.6883,0,U,56094,999,18048,.7065878E-5,-.67E-6,0
