ONEWEB-0551             
1 56053U 23043H   26189.14705493 -.00000051  00000+0 -16946-3 0  9996
2 56053  87.8985 255.0506 0002330 104.8330 255.3058 13.15546960159155
ONEWEB-0552             
1 56054U 23043J   26189.41872113  .00000016  00000+0  79329-5 0  9996
2 56054  87.9233 239.7583 0002026 103.4387 256.6973 13.21825929161038
ONEWEB-0553             
1 56055U 23043K   26189.53707674  .00000001  00000+0 -31492-4 0  9992
2 56055  87.9078 224.5339 0002126  84.7292 275.4082 13.16593640161782
ONEWEB-0554             
1 56056U 23043L   26189.37241995  .00000040  00000+0  71185-4 0  9999
2 56056  87.9075 224.5751 0001600  88.7486 271.3829 13.16593978161747
ONEWEB-0555             
1 56057U 23043M   26189.33441420 -.00000045  00000+0 -15007-3 0  9998
2 56057  87.9083 224.5716 0002256  81.0912 279.0475 13.16593265161747
ONEWEB-0557             
1 56058U 23043N   26189.34866369 -.00000049  00000+0 -16150-3 0  9997
2 56058  87.9081 224.5787 0001705  56.3413 303.7881 13.16593786161747
ONEWEB-0558             
1 56059U 23043P   26189.10921208  .00000023  00000+0  23306-4 0  9998
2 56059  87.9238 239.8152 0002422  99.0933 261.0475 13.21825522161001
ONEWEB-0559             
1 56060U 23043Q   26189.40021357 -.00000125  00000+0 -33531-3 0  9994
2 56060  87.9241 239.7527 0002217 102.7009 257.4373 13.21824687161052
ONEWEB-0566             
1 56061U 23043R   26189.39348624  .00000048  00000+0  85813-4 0  9995
2 56061  87.9238 239.7520 0002244 104.7462 255.3920 13.21823964161037
ONEWEB-0568             
1 56062U 23043S   26189.51808420 -.00000149  00000+0 -42237-3 0  9991
2 56062  87.9081 224.5344 0002215  87.6174 272.5211 13.16594680161787
ONEWEB-0574             
1 56063U 23043T   26189.38677973  .00000140  00000+0  30805-3 0  9991
2 56063  87.9241 239.7580 0001942  92.3896 267.7461 13.21826221161076
ONEWEB-0575             
1 56064U 23043U   26189.58774049 -.00000116  00000+0 -33742-3 0  9994
2 56064  87.9082 224.5166 0001867  83.7741 276.3603 13.16595490161788
ONEWEB-0576             
1 56065U 23043V   26189.34074437  .00000002  00000+0 -27381-4 0  9999
2 56065  87.9083 224.5744 0002000  89.0008 271.1352 13.16595708161749
ONEWEB-0577             
1 56066U 23043W   26189.34708610  .00000119  00000+0  27762-3 0  9997
2 56066  87.9095 224.5687 0001639  79.9377 280.1939 13.16596694161772
ONEWEB-0578             
1 56067U 23043X   26189.37332310  .00000087  00000+0  17822-3 0  9991
2 56067  87.9243 239.7572 0002234  88.8597 271.2793 13.21826248161039
ONEWEB-0579             
1 56068U 23043Y   26189.59198379 -.00000083  00000+0 -23267-3 0  9999
2 56068  87.9244 239.7115 0001994 103.9174 256.2181 13.21827434161072
ONEWEB-0581             
1 56069U 23043Z   26189.58140748 -.00000010  00000+0 -58829-4 0  9999
2 56069  87.9080 224.5348 0001561  85.7664 274.3645 13.16595173161771
ONEWEB-0609             
1 56070U 23043AA  26189.47742727  .00000170  00000+0  41645-3 0  9996
2 56070  87.8988 254.9695 0002150  97.6870 262.4505 13.15547461159234
ONEWEB-0613             
1 56071U 23043AB  26189.47505577  .00000194  00000+0  48209-3 0  9996
2 56071  87.8988 254.9822 0002148 104.4079 255.7290 13.15548533159239
ONEWEB-0630             
1 56072U 23043AC  26189.16607590  .00000183  00000+0  45200-3 0  9997
2 56072  87.8988 255.0176 0002130 108.0198 252.1165 13.15549412159180
ONEWEB-0632             
1 56073U 23043AD  26189.46555418  .00000061  00000+0  12853-3 0  9995
2 56073  87.8989 254.9742 0001912  97.4426 262.6922 13.15547874159223
ONEWEB-0633             
1 56074U 23043AE  26189.45921619 -.00000062  00000+0 -19980-3 0  9996
2 56074  87.8998 254.9525 0002295 107.8009 252.3372 13.15548942159201
ONEWEB-0634             
1 56075U 23043AF  26189.14072483 -.00000098  00000+0 -29484-3 0  9998
2 56075  87.8987 255.0548 0002328  94.2320 265.9077 13.15547692159156
ONEWEB-0635             
1 56076U 23043AG  26189.59231245 -.00000164  00000+0 -46871-3 0  9994
2 56076  87.8999 254.9295 0001803  94.9283 265.2053 13.15548039159242
ONEWEB-0636             
1 56077U 23043AH  26189.58438295 -.00000081  00000+0 -24882-3 0  9994
2 56077  87.9000 254.9366 0001893  95.1146 265.0201 13.15547676159223
ONEWEB-0637             
1 56078U 23043AJ  26189.42593605 -.00000031  00000+0 -11580-3 0  9991
2 56078  87.8989 254.9831 0002057  89.7860 270.3506 13.15548726159225
ONEWEB-0647             
1 56079U 23043AK  26189.42118481  .00000032  00000+0  51801-4 0  9997
2 56079  87.8992 254.9963 0001936 102.5666 257.5681 13.15549506159216
ONEWEB-0651             
1 56080U 23043AL  26189.56854808  .00000151  00000+0  36645-3 0  9994
2 56080  87.8990 254.9607 0001896  92.7170 267.4177 13.15547936160437
ONEWEB-0718             
1 56081U 23043AM  26189.41167920  .00000252  00000+0  63515-3 0  9999
2 56081  87.8991 254.9724 0002590  96.6380 263.5045 13.15549969159221
STARLINK-6109           
1 56094U 23046B   26189.32740576 -.00000067  00000+0  70659-5 0  9994
2 56094  42.9991 200.0792 0000954 271.3859  88.6883 15.27570457180488
